[
    {
        "address": {
            "building": "1007",
            "street": "Morris Park Ave",
            "zipcode": "10462"
        },
        "borough": "Bronx",
        "cuisine": "Bakery",        
        "name": "Morris Park Bake Shop",
        "restaurant_id": "30075445"
    },
    {
        "address": {
            "building": "469",
            "street": "Flatbush Avenue",
            "zipcode": "11225"
        },
        "borough": "Brooklyn",
        "cuisine": "Hamburgers",        
        "name": "Wendy'S",
        "restaurant_id": "30112340"
    },
    {
        "address": {
            "building": "351",
            "street": "West   57 Street",
            "zipcode": "10019"
        },
        "borough": "Manhattan",
        "cuisine": "Irish",        
        "name": "Dj Reynolds Pub And Restaurant",
        "restaurant_id": "30191841"
    },
    {
        "address": {
            "building": "2780",
            "street": "Stillwell Avenue",
            "zipcode": "11224"
        },
        "borough": "Brooklyn",
        "cuisine": "American ",
        "name": "Riviera Caterer",
        "restaurant_id": "40356018"
    },
    {
        "address": {
            "building": "97-22",
            "street": "63 Road",
            "zipcode": "11374"
        },
        "borough": "Queens",
        "cuisine": "Jewish/Kosher",
        "name": "Tov Kosher Kitchen",
        "restaurant_id": "40356068"
    },
    {
        "address": {
            "building": "8825",
            "street": "Astoria Boulevard",
            "zipcode": "11369"
        },
        "borough": "Queens",
        "cuisine": "American ",
        "name": "Brunos On The Boulevard",
        "restaurant_id": "40356151"
    },
    {
        "address": {
            "building": "2206",
            "street": "Victory Boulevard",
            "zipcode": "10314"
        },
        "borough": "Staten Island",
        "cuisine": "Jewish/Kosher",
        "name": "Kosher Island",
        "restaurant_id": "40356442"
    },
    {
        "address": {
            "building": "7114",
            "street": "Avenue U",
            "zipcode": "11234"
        },
        "borough": "Brooklyn",
        "cuisine": "Delicatessen",
        "name": "Wilken'S Fine Food",
        "restaurant_id": "40356483"
    },
    {
        "address": {
            "building": "6409",
            "street": "11 Avenue",
            "zipcode": "11219"
        },
        "borough": "Brooklyn",
        "cuisine": "American ",
        "name": "Regina Caterers",
        "restaurant_id": "40356649"
    },
    {
        "address": {
            "building": "1839",
            "street": "Nostrand Avenue",
            "zipcode": "11226"
        },
        "borough": "Brooklyn",
        "cuisine": "Ice Cream, Gelato, Yogurt, Ices",
        "name": "Taste The Tropics Ice Cream",
        "restaurant_id": "40356731"
    }
]